STARLINK-36393          
1 67859U 26034K   26065.24780482  .00285210  00000+0  13947-2 0  9997
2 67859  53.1598 228.5252 0000450 131.0979 229.0083 15.80975482  3391
STARLINK-35873          
1 67860U 26034L   26065.05739713  .00272584  00000+0  13347-2 0  9993
2 67860  53.1594 229.4715 0001591  30.7973 329.3143 15.80982437  3398
STARLINK-36325          
1 67861U 26034M   26065.05664833  .00261965  00000+0  12852-2 0  9995
2 67861  53.1597 229.4659 0001139  23.6683 336.4392 15.80969451  3369
STARLINK-36332          
1 67862U 26034N   26065.05590036  .00281501  00000+0  13773-2 0  9990
2 67862  53.1594 229.4620 0001612  25.2383 334.8719 15.80974764  3364
STARLINK-36835          
1 67863U 26034P   26065.05514503  .00244176  00000+0  12004-2 0  9999
2 67863  53.1596 229.4556 0000635  50.3911 309.7168 15.80974581  3361
STARLINK-36831          
1 67864U 26034Q   26065.18083761  .00363144  00000+0  17589-2 0  9991
2 67864  53.1590 228.8170 0001443  59.2107 300.9058 15.80974847  3382
STARLINK-36738          
1 67865U 26034R   26065.18008848  .00339725  00000+0  16497-2 0  9990
2 67865  53.1595 228.8116 0000703  75.9680 284.1421 15.80979739  3389
STARLINK-36780          
1 67866U 26034S   26065.05289296  .00227512  00000+0  11202-2 0  9994
2 67866  53.1600 229.4395 0001987  37.5801 322.5360 15.80986816  3368
STARLINK-36761          
1 67867U 26034T   26065.05214849  .00133322  00000+0  66726-3 0  9994
2 67867  53.1600 229.4341 0000665  45.3541 314.7536 15.80917806  3361
STARLINK-36762          
1 67868U 26034U   26065.17782666  .00359174  00000+0  17435-2 0  9992
2 67868  53.1596 228.7959 0001799  59.6969 300.4232 15.80937465  3384
STARLINK-36779          
1 67869U 26034V   26065.00002315  .00062315  00000+0  31738-3 0  9992
2 67869  53.1594 229.6791 0001267  64.3481   7.4784 15.80845266  3269
STARLINK-36770          
1 67870U 26034W   26065.00002315  .00078091  00000+0  39655-3 0  9998
2 67870  53.1595 229.6606 0000496  40.6299  39.7595 15.80821612  3261
STARLINK-36769          
1 67871U 26034X   26065.04989724  .00148035  00000+0  73892-3 0  9998
2 67871  53.1599 229.4185 0001492  32.1532 327.9581 15.80926897  3368
STARLINK-36786          
1 67872U 26034Y   26065.17484006  .00292285  00000+0  14293-2 0  9992
2 67872  53.1598 228.7752 0001765  54.3116 305.8070 15.80956737  3383
STARLINK-36783          
1 67873U 26034Z   26065.00002315  .00066563  00000+0  33884-3 0  9990
2 67873  53.1594 229.6429 0001147  50.7538  38.1696 15.80831028  3265
STARLINK-36730          
1 67874U 26034AA  26065.00002315  .00096909  00000+0  49018-3 0  9994
2 67874  53.1593 229.6346 0001177  59.0797  34.1204 15.80822103  3260
STARLINK-36727          
1 67875U 26034AB  26065.00002315  .00064229  00000+0  32711-3 0  9997
2 67875  53.1594 229.6256 0001055  50.1225  47.3455 15.80835052  3266
STARLINK-36743          
1 67876U 26034AC  26065.00002315  .00088633  00000+0  44914-3 0  9991
2 67876  53.1595 229.6162 0000999  40.8300  60.9158 15.80817859  3266
STARLINK-36784          
1 67877U 26034AD  26065.17108492  .00296973  00000+0  14509-2 0  9997
2 67877  53.1604 228.7493 0001022  18.1823 341.9236 15.80964162  3383
STARLINK-36689          
1 67878U 26034AE  26065.00002315  .00060858  00000+0  31032-3 0  9999
2 67878  53.1593 229.5990 0001214  72.9564  37.3315 15.80829782  3264
STARLINK-36818          
1 67879U 26035A   26065.25002315 -.00938602  27644-3 -24212-2 0  9999
2 67879  97.2760 357.3220 0001305 123.4447 166.2094 15.95168120  3207
STARLINK-36821          
1 67880U 26035B   26065.25002315 -.00949107  28266-3 -24293-2 0  9993
2 67880  97.2754 357.3252 0001300 122.5958 174.3851 15.95315818  3208
STARLINK-36808          
1 67881U 26035C   26065.25002315 -.00951045  28353-3 -24435-2 0  9993
2 67881  97.2754 357.3231 0001101 112.0351 180.4869 15.95245627  3203
STARLINK-36817          
1 67882U 26035D   26065.25002315 -.00966635  29288-3 -24556-2 0  9997
2 67882  97.2745 357.3283 0001155 110.9056 194.8390 15.95459956  3209
STARLINK-36856          
1 67883U 26035E   26065.25002315 -.00957059  28730-3 -24403-2 0  9990
2 67883  97.2750 357.3269 0001144 118.4384 183.1889 15.95388685  3209
STARLINK-36842          
1 67884U 26035F   26065.25002315 -.01003222  31410-3 -25369-2 0  9997
2 67884  97.2744 357.3299 0001093 105.9520 203.6521 15.95550361  3205
STARLINK-36826          
1 67885U 26035G   26065.25002315 -.01025675  32756-3 -25825-2 0  9995
2 67885  97.2743 357.3315 0001173 118.2614 194.5025 15.95633689  3206
STARLINK-36390          
1 67886U 26035H   26065.25002315 -.01078848  36005-3 -27056-2 0  9995
2 67886  97.2738 357.3332 0001127 119.2578 198.1359 15.95715527  3256
STARLINK-36368          
1 67887U 26035J   26065.25002315 -.01112787  38159-3 -27813-2 0  9990
2 67887  97.2736 357.3350 0001129 114.9701 206.8483 15.95783600  3204
STARLINK-36801          
1 67888U 26035K   26065.25002315 -.01122012  38770-3 -27962-2 0  9997
2 67888  97.2734 357.3368 0001127 114.7468 211.3508 15.95839449  3200
STARLINK-36372          
1 67889U 26035L   26065.25002315 -.01127481  39168-3 -27927-2 0  9996
2 67889  97.2727 357.3400 0001124 112.8382 221.4865 15.95953876  3200
STARLINK-36363          
1 67890U 26035M   26065.25002315 -.01126559  39083-3 -27996-2 0  9995
2 67890  97.2733 357.3390 0001297 121.1776 209.6902 15.95892449  3206
STARLINK-36816          
1 67891U 26035N   26065.25002315 -.01188848  43585-3 -28180-2 0  9993
2 67891  97.2717 357.3638 0001094 109.3171 286.0535 15.96776234  3098
STARLINK-36813          
1 67892U 26035P   26065.25002315 -.01167780  41976-3 -28322-2 0  9996
2 67892  97.2709 357.3523 0000975  97.8191 270.1973 15.96351036  3205
STARLINK-36803          
1 67893U 26035Q   26065.25002315 -.01134437  39637-3 -28027-2 0  9993
2 67893  97.2726 357.3420 0001117 113.2518 226.1420 15.96002856  3207
STARLINK-36846          
1 67894U 26035R   26065.25002315 -.01140614  40080-3 -28029-2 0  9994
2 67894  97.2723 357.3462 0001267 122.9997 226.6900 15.96102507  3207
STARLINK-36866          
1 67895U 26035S   26065.25002315 -.01150255  40737-3 -28173-2 0  9996
2 67895  97.2722 357.3480 0001097 105.8147 248.4217 15.96165533  3206
STARLINK-36877          
1 67896U 26035T   26065.25002315 -.01141518  40116-3 -28133-2 0  9996
2 67896  97.2723 357.3439 0000998  97.4430 247.2959 15.96049238  3205
STARLINK-36870          
1 67897U 26035U   26065.25002315 -.01155441  41100-3 -28224-2 0  9992
2 67897  97.2718 357.3498 0001036 105.3268 254.0448 15.96216399  3200
STARLINK-36810          
1 67898U 26035V   26065.25002315 -.01158309  41319-3 -28190-2 0  9993
2 67898  97.2718 357.3514 0001001 100.3167 263.2349 15.96285114  3208
STARLINK-36878          
1 67899U 26035W   26065.25002315 -.01163846  41744-3 -28121-2 0  9992
2 67899  97.2717 357.3548 0001123 115.0893 256.7898 15.96419379  3207
STARLINK-36361          
1 67900U 26035X   26065.25002315 -.01172172  42331-3 -28216-2 0  9995
2 67900  97.2715 357.3568 0001104 109.8930 266.4909 15.96489810  3200
STARLINK-36336          
1 67901U 26035Y   26065.25002315 -.01177021  42755-3 -28002-2 0  9997
2 67901  97.2724 357.3630 0001008 108.3066 281.7858 15.96707789  3254
STARLINK-36876          
1 67902U 26035Z   26065.25002315 -.01166513  41984-3 -27972-2 0  9990
2 67902  97.2722 357.3595 0001087 113.4549 266.9451 15.96559985  3205
STARLINK-36257          
1 67903U 26035AA  26065.25002315 -.01167695  42097-3 -27889-2 0  9996
2 67903  97.2721 357.3602 0001001 108.4497 276.1449 15.96634025  3250
STARLINK-36814          
1 67904U 26036A   26065.25002315  .00020839  00000+0  10134-3 0  9993
2 67904  42.9993 270.8897 0002621 258.5452 161.3592 15.81996579  3096
STARLINK-36729          
1 67905U 26036B   26065.25002315 -.00216085  00000+0 -10423-2 0  9996
2 67905  42.9997 270.8781 0002212 291.7484 132.3999 15.82156578  3090
STARLINK-36763          
1 67906U 26036C   26065.25002315  .00006229  00000+0  32106-4 0  9996
2 67906  42.9996 270.8670 0002135 242.9078 185.5355 15.82007387  3097
STARLINK-36742          
1 67907U 26036D   26065.25002315 -.00068459  00000+0 -32472-3 0  9997
2 67907  42.9998 270.8563 0001954 270.7980 161.9125 15.82042288  3092
STARLINK-36827          
1 67908U 26036E   26065.25002315  .00025871  00000+0  12511-3 0  9999
2 67908  42.9994 270.8461 0001945 274.0805 162.9147 15.82000884  3090
STARLINK-36822          
1 67909U 26036F   26065.25002315 -.00016593  00000+0 -76391-4 0  9990
2 67909  42.9995 270.8357 0002091 260.1859 181.0748 15.82020205  3092
STARLINK-36847          
1 67910U 26036G   26065.25002315 -.00137399  00000+0 -65756-3 0  9992
2 67910  42.9993 270.8242 0002107 288.5941 156.9181 15.82103974  3096
STARLINK-36736          
1 67911U 26036H   26065.25002315  .00032136  00000+0  15463-3 0  9994
2 67911  42.9996 270.8136 0002193 292.9420 156.8608 15.82006797  3096
STARLINK-36676          
1 67912U 26036J   26065.25002315  .00078642  00000+0  37327-3 0  9990
2 67912  42.9995 270.8032 0002427 278.9659 175.1244 15.81976796  3093
STARLINK-36690          
1 67913U 26036K   26065.25002315 -.00003421  00000+0 -13721-4 0  9999
2 67913  42.9992 270.7925 0002207 304.2186 154.1401 15.82007700  3098
STARLINK-36724          
1 67914U 26036L   26065.25002315 -.00047687  00000+0 -22482-3 0  9995
2 67914  42.9996 270.7705 0002408 306.0665 160.8130 15.82045649  3091
STARLINK-36723          
1 67915U 26036M   26065.25002315  .00068910  00000+0  32760-3 0  9996
2 67915  42.9994 270.7816 0002088 288.2793 174.3448 15.81987865  3096
STARLINK-36721          
1 67916U 26036N   26065.25002315 -.00016435  00000+0 -75593-4 0  9996
2 67916  42.9994 270.7603 0002131 298.9351 172.2180 15.82033155  3093
STARLINK-36722          
1 67917U 26036P   26065.25002315 -.00089065  00000+0 -42415-3 0  9992
2 67917  42.9991 270.7491 0002021 289.5880 185.8603 15.82046067  3093
